{
  "fetched_at": "2026-07-09T01:50:32.324167+00:00",
  "satellites": {
    "57166": {
      "name": "Meteor M2-3",
      "tle_line1": "1 57166U 23091A   26189.59872000 -.00000018  00000+0  10986-4 0  9994",
      "tle_line2": "2 57166  98.6076 244.1377 0005123 105.0711 255.1035 14.24048570157567"
    },
    "59051": {
      "name": "Meteor M2-4",
      "tle_line1": "1 59051U 24039A   26189.56739389 -.00000011  00000+0  14660-4 0  9997",
      "tle_line2": "2 59051  98.7021 148.5978 0008182 105.1749 255.0334 14.22431663122309"
    },
    "38771": {
      "name": "MetOp-B",
      "tle_line1": "1 38771U 12049A   26189.58845670  .00000067  00000+0  50258-4 0  9997",
      "tle_line2": "2 38771  98.6492 240.6595 0001088 296.3403  63.7663 14.21445160716307"
    },
    "43689": {
      "name": "MetOp-C",
      "tle_line1": "1 43689U 18087A   26189.53616195  .00000065  00000+0  49418-4 0  9996",
      "tle_line2": "2 43689  98.6633 248.7484 0002211 102.2878 257.8547 14.21517840397862"
    },
    "60543": {
      "name": "Arctic Weather Satellite",
      "tle_line1": "1 60543U 24149CD  26188.70604552  .00000664  00000+0  74721-4 0  9992",
      "tle_line2": "2 60543  97.6792 258.5844 0003340  65.4677 294.6889 14.89818207102356"
    }
  }
}